{"type": "FeatureCollection", "features": [ {"type": "Feature", "properties": {"norad_id": 33492, "name": "GOSAT (IBUKI)", "group": "resource", "lat": 66.51423459068091, "lon": 67.5984204448139, "alt_km": 661.6295413256894, "timestamp": "2025-12-03T22:42:32.313420+00:00", "meta": {"OBJECT_NAME": "GOSAT (IBUKI)", "OBJECT_ID": "2009-002A", "EPOCH": "2025-12-03T07:40:24.938112", "MEAN_MOTION": 14.67545901, "ECCENTRICITY": 0.0001179, "INCLINATION": 98.0766, "RA_OF_ASC_NODE": 86.0553, "ARG_OF_PERICENTER": 87.7472, "MEAN_ANOMALY": 272.3868, "EPHEMERIS_TYPE": 0, "CLASSIFICATION_TYPE": "U", "NORAD_CAT_ID": 33492, "ELEMENT_SET_NO": 999, "REV_AT_EPOCH": 90273, "BSTAR": 0.00025922, "MEAN_MOTION_DOT": 1.422e-05, "MEAN_MOTION_DDOT": 0}, "tle": {"line1": "1 33492U 09002A   25337.31973308  .00001422  00000+0  25922-3 0  9997", "line2": "2 33492  98.0766  86.0553 0001179  87.7472 272.3868 14.67545901902738"}}, "geometry": {"type": "Point", "coordinates": [67.5984204448139, 66.51423459068091]}}, {"type": "Feature", "properties": {"norad_id": 35681, "name": "DEIMOS-1", "group": "resource", "lat": -81.9936058108408, "lon": -146.5156954011127, "alt_km": 654.6122305585413, "timestamp": "2025-12-03T22:42:32.313436+00:00", "meta": {"OBJECT_NAME": "DEIMOS-1", "OBJECT_ID": "2009-041A", "EPOCH": "2025-12-03T11:42:35.088768", "MEAN_MOTION": 14.74929428, "ECCENTRICITY": 0.0002677, "INCLINATION": 97.7146, "RA_OF_ASC_NODE": 138.5224, "ARG_OF_PERICENTER": 96.748, "MEAN_ANOMALY": 263.4034, "EPHEMERIS_TYPE": 0, "CLASSIFICATION_TYPE": "U", "NORAD_CAT_ID": 35681, "ELEMENT_SET_NO": 999, "REV_AT_EPOCH": 87803, "BSTAR": 0.0001719, "MEAN_MOTION_DOT": 1.107e-05, "MEAN_MOTION_DDOT": 0}, "tle": {"line1": "1 35681U 09041A   25337.48790612  .00001107  00000+0  17190-3 0  9993", "line2": "2 35681  97.7146 138.5224 0002677  96.7480 263.4034 14.74929428878038"}}, "geometry": {"type": "Point", "coordinates": [-146.5156954011127, -81.9936058108408]}}, {"type": "Feature", "properties": {"norad_id": 35682, "name": "DUBAISAT-1", "group": "resource", "lat": -37.688960921716706, "lon": -77.46467861512716, "alt_km": 657.2117370187561, "timestamp": "2025-12-03T22:42:32.313451+00:00", "meta": {"OBJECT_NAME": "DUBAISAT-1", "OBJECT_ID": "2009-041B", "EPOCH": "2025-12-03T08:41:38.285088", "MEAN_MOTION": 14.74559668, "ECCENTRICITY": 0.0010168, "INCLINATION": 97.9784, "RA_OF_ASC_NODE": 108.1807, "ARG_OF_PERICENTER": 346.4691, "MEAN_ANOMALY": 13.6243, "EPHEMERIS_TYPE": 0, "CLASSIFICATION_TYPE": "U", "NORAD_CAT_ID": 35682, "ELEMENT_SET_NO": 999, "REV_AT_EPOCH": 87623, "BSTAR": 0.00028341, "MEAN_MOTION_DOT": 1.838e-05, "MEAN_MOTION_DDOT": 0}, "tle": {"line1": "1 35682U 09041B   25337.36224867  .00001838  00000+0  28341-3 0  9996", "line2": "2 35682  97.9784 108.1807 0010168 346.4691  13.6243 14.74559668876234"}}, "geometry": {"type": "Point", "coordinates": [-77.46467861512716, -37.688960921716706]}}, {"type": "Feature", "properties": {"norad_id": 35931, "name": "OCEANSAT-2", "group": "resource", "lat": -64.02698362487146, "lon": 142.1706926036451, "alt_km": 914.3365229456822, "timestamp": "2025-12-03T22:42:32.313465+00:00", "meta": {"OBJECT_NAME": "OCEANSAT-2", "OBJECT_ID": "2009-051A", "EPOCH": "2025-12-03T12:57:47.480832", "MEAN_MOTION": 13.99626605, "ECCENTRICITY": 0.0016596, "INCLINATION": 98.2231, "RA_OF_ASC_NODE": 339.0735, "ARG_OF_PERICENTER": 68.9495, "MEAN_ANOMALY": 291.3445, "EPHEMERIS_TYPE": 0, "CLASSIFICATION_TYPE": "U", "NORAD_CAT_ID": 35931, "ELEMENT_SET_NO": 999, "REV_AT_EPOCH": 85196, "BSTAR": -8.0477e-05, "MEAN_MOTION_DOT": -1.55e-06, "MEAN_MOTION_DDOT": 0}, "tle": {"line1": "1 35931U 09051A   25337.54013288 -.00000155  00000+0 -80477-4 0  9999", "line2": "2 35931  98.2231 339.0735 0016596  68.9495 291.3445 13.99626605851960"}}, "geometry": {"type": "Point", "coordinates": [142.1706926036451, -64.02698362487146]}}, {"type": "Feature", "properties": {"norad_id": 35946, "name": "WORLDVIEW-2 (WV-2)", "group": "resource", "lat": -62.78122284607165, "lon": -147.702136332968, "alt_km": 777.0164932099242, "timestamp": "2025-12-03T22:42:32.313475+00:00", "meta": {"OBJECT_NAME": "WORLDVIEW-2 (WV-2)", "OBJECT_ID": "2009-055A", "EPOCH": "2025-12-03T11:33:20.600352", "MEAN_MOTION": 14.3764571, "ECCENTRICITY": 0.0005444, "INCLINATION": 98.4771, "RA_OF_ASC_NODE": 48.6952, "ARG_OF_PERICENTER": 89.0722, "MEAN_ANOMALY": 271.1089, "EPHEMERIS_TYPE": 0, "CLASSIFICATION_TYPE": "U", "NORAD_CAT_ID": 35946, "ELEMENT_SET_NO": 999, "REV_AT_EPOCH": 84752, "BSTAR": 0.00011487, "MEAN_MOTION_DOT": 3.01e-06, "MEAN_MOTION_DDOT": 0}, "tle": {"line1": "1 35946U 09055A   25337.48148843  .00000301  00000+0  11487-3 0  9993", "line2": "2 35946  98.4771  48.6952 0005444  89.0722 271.1089 14.37645710847526"}}, "geometry": {"type": "Point", "coordinates": [-147.702136332968, -62.78122284607165]}}, {"type": "Feature", "properties": {"norad_id": 36036, "name": "SMOS", "group": "resource", "lat": -33.209340321404014, "lon": -22.452370614739838, "alt_km": 765.901906335499, "timestamp": "2025-12-03T22:42:32.313485+00:00", "meta": {"OBJECT_NAME": "SMOS", "OBJECT_ID": "2009-059A", "EPOCH": "2025-12-03T11:42:47.291904", "MEAN_MOTION": 14.39788745, "ECCENTRICITY": 0.0001026, "INCLINATION": 98.4384, "RA_OF_ASC_NODE": 162.673, "ARG_OF_PERICENTER": 72.1979, "MEAN_ANOMALY": 287.9321, "EPHEMERIS_TYPE": 0, "CLASSIFICATION_TYPE": "U", "NORAD_CAT_ID": 36036, "ELEMENT_SET_NO": 999, "REV_AT_EPOCH": 84529, "BSTAR": 0.0002075, "MEAN_MOTION_DOT": 6.07e-06, "MEAN_MOTION_DDOT": 0}, "tle": {"line1": "1 36036U 09059A   25337.48804736  .00000607  00000+0  20750-3 0  9990", "line2": "2 36036  98.4384 162.6730 0001026  72.1979 287.9321 14.39788745845291"}}, "geometry": {"type": "Point", "coordinates": [-22.452370614739838, -33.209340321404014]}}, {"type": "Feature", "properties": {"norad_id": 36110, "name": "YAOGAN-7", "group": "resource", "lat": -78.72040704825132, "lon": -95.20780681722806, "alt_km": 629.9022344598479, "timestamp": "2025-12-03T22:42:32.313496+00:00", "meta": {"OBJECT_NAME": "YAOGAN-7", "OBJECT_ID": "2009-069A", "EPOCH": "2025-12-03T06:49:37.585056", "MEAN_MOTION": 14.77708998, "ECCENTRICITY": 0.0023802, "INCLINATION": 98.0303, "RA_OF_ASC_NODE": 219.0749, "ARG_OF_PERICENTER": 313.2109, "MEAN_ANOMALY": 46.7113, "EPHEMERIS_TYPE": 0, "CLASSIFICATION_TYPE": "U", "NORAD_CAT_ID": 36110, "ELEMENT_SET_NO": 999, "REV_AT_EPOCH": 86069, "BSTAR": 0.00015999, "MEAN_MOTION_DOT": 1.098e-05, "MEAN_MOTION_DDOT": 0}, "tle": {"line1": "1 36110U 09069A   25337.28446279  .00001098  00000+0  15999-3 0  9990", "line2": "2 36110  98.0303 219.0749 0023802 313.2109  46.7113 14.77708998860693"}}, "geometry": {"type": "Point", "coordinates": [-95.20780681722806, -78.72040704825132]}}, {"type": "Feature", "properties": {"norad_id": 36605, "name": "TANDEM-X", "group": "resource", "lat": -64.3723869556091, "lon": -0.7281097814716313, "alt_km": 516.7452527027981, "timestamp": "2025-12-03T22:42:32.313506+00:00", "meta": {"OBJECT_NAME": "TANDEM-X", "OBJECT_ID": "2010-030A", "EPOCH": "2025-12-02T15:22:47.718912", "MEAN_MOTION": 15.19155178, "ECCENTRICITY": 0.00017925, "INCLINATION": 97.4443, "RA_OF_ASC_NODE": 342.1684, "ARG_OF_PERICENTER": 94.9925, "MEAN_ANOMALY": 265.1514, "EPHEMERIS_TYPE": 0, "CLASSIFICATION_TYPE": "U", "NORAD_CAT_ID": 36605, "ELEMENT_SET_NO": 999, "REV_AT_EPOCH": 85680, "BSTAR": 9.0053561e-05, "MEAN_MOTION_DOT": 1.825e-05, "MEAN_MOTION_DDOT": 0}, "tle": {"line1": "1 36605U 10030A   25336.64083008  .00001825  00000+0  90054-4 0  9999", "line2": "2 36605  97.4443 342.1684 0001792  94.9925 265.1514 15.19155178856802"}}, "geometry": {"type": "Point", "coordinates": [-0.7281097814716313, -64.3723869556091]}}, {"type": "Feature", "properties": {"norad_id": 36795, "name": "CARTOSAT-2B", "group": "resource", "lat": 7.062425643517755, "lon": -151.76690726541167, "alt_km": 632.1063337579944, "timestamp": "2025-12-03T22:42:32.313515+00:00", "meta": {"OBJECT_NAME": "CARTOSAT-2B", "OBJECT_ID": "2010-035A", "EPOCH": "2025-12-03T12:11:15.736992", "MEAN_MOTION": 14.78765236, "ECCENTRICITY": 0.0012875, "INCLINATION": 97.7866, "RA_OF_ASC_NODE": 26.8375, "ARG_OF_PERICENTER": 104.6645, "MEAN_ANOMALY": 255.5995, "EPHEMERIS_TYPE": 0, "CLASSIFICATION_TYPE": "U", "NORAD_CAT_ID": 36795, "ELEMENT_SET_NO": 999, "REV_AT_EPOCH": 83093, "BSTAR": 0.00016779, "MEAN_MOTION_DOT": 1.184e-05, "MEAN_MOTION_DDOT": 0}, "tle": {"line1": "1 36795U 10035A   25337.50782103  .00001184  00000+0  16779-3 0  9991", "line2": "2 36795  97.7866  26.8375 0012875 104.6645 255.5995 14.78765236830937"}}, "geometry": {"type": "Point", "coordinates": [-151.76690726541167, 7.062425643517755]}}, {"type": "Feature", "properties": {"norad_id": 36834, "name": "YAOGAN-10", "group": "resource", "lat": 67.54103730536754, "lon": -21.83415868953808, "alt_km": 607.3903977012887, "timestamp": "2025-12-03T22:42:32.313525+00:00", "meta": {"OBJECT_NAME": "YAOGAN-10", "OBJECT_ID": "2010-038A", "EPOCH": "2025-12-03T13:25:06.805056", "MEAN_MOTION": 14.84552594, "ECCENTRICITY": 0.0001507, "INCLINATION": 97.915, "RA_OF_ASC_NODE": 357.4486, "ARG_OF_PERICENTER": 84.1068, "MEAN_ANOMALY": 77.2989, "EPHEMERIS_TYPE": 0, "CLASSIFICATION_TYPE": "U", "NORAD_CAT_ID": 36834, "ELEMENT_SET_NO": 999, "REV_AT_EPOCH": 82817, "BSTAR": 0.00022409, "MEAN_MOTION_DOT": 1.837e-05, "MEAN_MOTION_DDOT": 0}, "tle": {"line1": "1 36834U 10038A   25337.55910654  .00001837  00000+0  22409-3 0  9999", "line2": "2 36834  97.9150 357.4486 0001507  84.1068  77.2989 14.84552594828179"}}, "geometry": {"type": "Point", "coordinates": [-21.83415868953808, 67.54103730536754]}}]}